{
  "type": "FeatureCollection",
  "features": [
    {
      "type": "Feature",
      "properties": {
        "norad_id": 34036,
        "name": "COSMOS 2251 DEB",
        "group": "cosmos-2251-debris",
        "lat": 16.972892137988303,
        "lon": -27.99660344569737,
        "alt_km": 576.0117015125261,
        "timestamp": "2025-12-08T21:31:05.060016+00:00",
        "meta_object_name": "COSMOS 2251 DEB",
        "meta_object_id": "1993-036HX",
        "meta_epoch": "2025-12-08T12:45:39.959136",
        "meta_mean_motion": 14.94433356,
        "meta_eccentricity": 0.00134725,
        "meta_inclination": 74.0203,
        "meta_ra_of_asc_node": 157.7565,
        "meta_arg_of_pericenter": 191.6688,
        "meta_mean_anomaly": 168.4186,
        "meta_ephemeris_type": 0,
        "meta_classification_type": "U",
        "meta_norad_cat_id": 34036,
        "meta_element_set_no": 999,
        "meta_rev_at_epoch": 88507,
        "meta_bstar": 0.0046508999,
        "meta_mean_motion_dot": 0.00050558,
        "meta_mean_motion_ddot": 0,
        "tle_line1": "1 34036U 93036HX  25342.53171249  .00050558  00000+0  46509-2 0  9993",
        "tle_line2": "2 34036  74.0203 157.7565 0013472 191.6688 168.4186 14.94433356885070"
      },
      "geometry": {
        "type": "Point",
        "coordinates": [
          -27.99660344569737,
          16.972892137988303
        ]
      }
    },
    {
      "type": "Feature",
      "properties": {
        "norad_id": 34037,
        "name": "COSMOS 2251 DEB",
        "group": "cosmos-2251-debris",
        "lat": -27.246829021578787,
        "lon": 49.00890639283707,
        "alt_km": 808.8122440003899,
        "timestamp": "2025-12-08T21:31:05.060026+00:00",
        "meta_object_name": "COSMOS 2251 DEB",
        "meta_object_id": "1993-036HY",
        "meta_epoch": "2025-12-08T14:57:24.539616",
        "meta_mean_motion": 14.34649687,
        "meta_eccentricity": 0.00521374,
        "meta_inclination": 74.0523,
        "meta_ra_of_asc_node": 57.9766,
        "meta_arg_of_pericenter": 109.2388,
        "meta_mean_anomaly": 251.4416,
        "meta_ephemeris_type": 0,
        "meta_classification_type": "U",
        "meta_norad_cat_id": 34037,
        "meta_element_set_no": 999,
        "meta_rev_at_epoch": 87658,
        "meta_bstar": 0.00090851947,
        "meta_mean_motion_dot": 2.584e-05,
        "meta_mean_motion_ddot": 0,
        "tle_line1": "1 34037U 93036HY  25342.62320069  .00002584  00000+0  90852-3 0  9997",
        "tle_line2": "2 34037  74.0523  57.9766 0052137 109.2388 251.4416 14.34649687876588"
      },
      "geometry": {
        "type": "Point",
        "coordinates": [
          49.00890639283707,
          -27.246829021578787
        ]
      }
    },
    {
      "type": "Feature",
      "properties": {
        "norad_id": 34040,
        "name": "COSMOS 2251 DEB",
        "group": "cosmos-2251-debris",
        "lat": 56.60530379629775,
        "lon": 98.0935269397643,
        "alt_km": 787.0346462865591,
        "timestamp": "2025-12-08T21:31:05.060036+00:00",
        "meta_object_name": "COSMOS 2251 DEB",
        "meta_object_id": "1993-036JB",
        "meta_epoch": "2025-12-08T14:13:30.139680",
        "meta_mean_motion": 13.68367899,
        "meta_eccentricity": 0.03429134,
        "meta_inclination": 73.9558,
        "meta_ra_of_asc_node": 72.7152,
        "meta_arg_of_pericenter": 26.9402,
        "meta_mean_anomaly": 334.9063,
        "meta_ephemeris_type": 0,
        "meta_classification_type": "U",
        "meta_norad_cat_id": 34040,
        "meta_element_set_no": 999,
        "meta_rev_at_epoch": 83543,
        "meta_bstar": 0.00064026684,
        "meta_mean_motion_dot": 8.03e-06,
        "meta_mean_motion_ddot": 0,
        "tle_line1": "1 34040U 93036JB  25342.59270995  .00000803  00000+0  64027-3 0  9996",
        "tle_line2": "2 34040  73.9558  72.7152 0342913  26.9402 334.9063 13.68367899835430"
      },
      "geometry": {
        "type": "Point",
        "coordinates": [
          98.0935269397643,
          56.60530379629775
        ]
      }
    },
    {
      "type": "Feature",
      "properties": {
        "norad_id": 34045,
        "name": "COSMOS 2251 DEB",
        "group": "cosmos-2251-debris",
        "lat": 23.654224007874134,
        "lon": -34.934144184212116,
        "alt_km": 759.8885955194464,
        "timestamp": "2025-12-08T21:31:05.060046+00:00",
        "meta_object_name": "COSMOS 2251 DEB",
        "meta_object_id": "1993-036JG",
        "meta_epoch": "2025-12-08T10:14:56.814144",
        "meta_mean_motion": 14.3406533,
        "meta_eccentricity": 0.00255112,
        "meta_inclination": 74.0387,
        "meta_ra_of_asc_node": 318.7231,
        "meta_arg_of_pericenter": 43.4638,
        "meta_mean_anomaly": 78.301,
        "meta_ephemeris_type": 0,
        "meta_classification_type": "U",
        "meta_norad_cat_id": 34045,
        "meta_element_set_no": 999,
        "meta_rev_at_epoch": 87971,
        "meta_bstar": 0.00018968061,
        "meta_mean_motion_dot": 5.06e-06,
        "meta_mean_motion_ddot": 0,
        "tle_line1": "1 34045U 93036JG  25342.42704646  .00000506  00000+0  18968-3 0  9991",
        "tle_line2": "2 34045  74.0387 318.7231 0025511  43.4638  78.3010 14.34065330879714"
      },
      "geometry": {
        "type": "Point",
        "coordinates": [
          -34.934144184212116,
          23.654224007874134
        ]
      }
    },
    {
      "type": "Feature",
      "properties": {
        "norad_id": 34046,
        "name": "COSMOS 2251 DEB",
        "group": "cosmos-2251-debris",
        "lat": -22.557240026438826,
        "lon": -155.52398779540331,
        "alt_km": 752.295008841721,
        "timestamp": "2025-12-08T21:31:05.060056+00:00",
        "meta_object_name": "COSMOS 2251 DEB",
        "meta_object_id": "1993-036JH",
        "meta_epoch": "2025-12-08T12:58:55.151040",
        "meta_mean_motion": 14.4642032,
        "meta_eccentricity": 0.00746227,
        "meta_inclination": 74.0395,
        "meta_ra_of_asc_node": 18.3124,
        "meta_arg_of_pericenter": 102.9886,
        "meta_mean_anomaly": 48.3117,
        "meta_ephemeris_type": 0,
        "meta_classification_type": "U",
        "meta_norad_cat_id": 34046,
        "meta_element_set_no": 999,
        "meta_rev_at_epoch": 87765,
        "meta_bstar": 0.0015933152,
        "meta_mean_motion_dot": 5.905e-05,
        "meta_mean_motion_ddot": 0,
        "tle_line1": "1 34046U 93036JH  25342.54091610  .00005905  00000+0  15933-2 0  9991",
        "tle_line2": "2 34046  74.0395  18.3124 0074622 102.9886  48.3117 14.46420320877654"
      },
      "geometry": {
        "type": "Point",
        "coordinates": [
          -155.52398779540331,
          -22.557240026438826
        ]
      }
    },
    {
      "type": "Feature",
      "properties": {
        "norad_id": 34050,
        "name": "COSMOS 2251 DEB",
        "group": "cosmos-2251-debris",
        "lat": 49.53613388987006,
        "lon": 36.18200240985827,
        "alt_km": 765.4512794175635,
        "timestamp": "2025-12-08T21:31:05.060066+00:00",
        "meta_object_name": "COSMOS 2251 DEB",
        "meta_object_id": "1993-036JM",
        "meta_epoch": "2025-12-08T13:14:34.937664",
        "meta_mean_motion": 13.96171177,
        "meta_eccentricity": 0.02145853,
        "meta_inclination": 74.0886,
        "meta_ra_of_asc_node": 17.2364,
        "meta_arg_of_pericenter": 82.6315,
        "meta_mean_anomaly": 38.5943,
        "meta_ephemeris_type": 0,
        "meta_classification_type": "U",
        "meta_norad_cat_id": 34050,
        "meta_element_set_no": 999,
        "meta_rev_at_epoch": 85373,
        "meta_bstar": 0.00091156728,
        "meta_mean_motion_dot": 1.499e-05,
        "meta_mean_motion_ddot": 0,
        "tle_line1": "1 34050U 93036JM  25342.55179326  .00001499  00000+0  91157-3 0  9995",
        "tle_line2": "2 34050  74.0886  17.2364 0214585  82.6315  38.5943 13.96171177853731"
      },
      "geometry": {
        "type": "Point",
        "coordinates": [
          36.18200240985827,
          49.53613388987006
        ]
      }
    },
    {
      "type": "Feature",
      "properties": {
        "norad_id": 34053,
        "name": "COSMOS 2251 DEB",
        "group": "cosmos-2251-debris",
        "lat": -46.2330673470795,
        "lon": -129.25055200842013,
        "alt_km": 1047.8809388261134,
        "timestamp": "2025-12-08T21:31:05.060077+00:00",
        "meta_object_name": "COSMOS 2251 DEB",
        "meta_object_id": "1993-036JQ",
        "meta_epoch": "2025-12-08T11:04:21.336384",
        "meta_mean_motion": 13.49151516,
        "meta_eccentricity": 0.04219632,
        "meta_inclination": 73.8445,
        "meta_ra_of_asc_node": 249.065,
        "meta_arg_of_pericenter": 38.3285,
        "meta_mean_anomaly": 324.7018,
        "meta_ephemeris_type": 0,
        "meta_classification_type": "U",
        "meta_norad_cat_id": 34053,
        "meta_element_set_no": 999,
        "meta_rev_at_epoch": 82626,
        "meta_bstar": 0.0013500971,
        "meta_mean_motion_dot": 1.45e-05,
        "meta_mean_motion_ddot": 0,
        "tle_line1": "1 34053U 93036JQ  25342.46135806  .00001450  00000+0  13501-2 0  9996",
        "tle_line2": "2 34053  73.8445 249.0650 0421963  38.3285 324.7018 13.49151516826263"
      },
      "geometry": {
        "type": "Point",
        "coordinates": [
          -129.25055200842013,
          -46.2330673470795
        ]
      }
    }
  ]
}